      2.10          N: GNSS NAV DATA                        RINEX VERSION / TYPE
fic2rin                                 02/28/2019 00:07:59 PGM / RUN BY / DATE
                                                            END OF HEADER
13 19  2 26 10  0  0.0-7.363874465227e-05 1.364242052659e-12 0.000000000000e+00
    1.020000000000e+02 4.218750000000e+00 4.506259132352e-09 9.807281234915e-02
    3.408640623093e-07 3.704376169480e-03 9.033828973770e-06 5.153663618088e+03
    2.088000000000e+05 3.539025783539e-08 8.601791240846e-01 9.313225746155e-09
    9.680791734805e-01 2.073750000000e+02 1.361053057026e+00-8.013548082158e-09
   -3.196561721055e-10 1.000000000000e+00 2.042000000000e+03 0.000000000000e+00
    2.400000000000e+00 0.000000000000e+00-1.117587089539e-08 1.020000000000e+02
    2.016000000000e+05 4.000000000000e+00
11 19  2 26 10  0  0.0-6.541060283780e-04 6.252776074689e-12 0.000000000000e+00
    5.500000000000e+01-4.143750000000e+01 5.639877780690e-09-1.679601382665e+00
   -1.842156052589e-06 1.654170616530e-02 7.366761565208e-06 5.153691463470e+03
    2.088000000000e+05-1.899898052216e-07-1.795699785898e+00 3.911554813385e-07
    9.083200276322e-01 2.109062500000e+02 1.865552023433e+00-8.674289890420e-09
    1.225051028293e-10 1.000000000000e+00 2.042000000000e+03 0.000000000000e+00
    2.400000000000e+00 0.000000000000e+00-1.210719347000e-08 5.500000000000e+01
    2.016000000000e+05 4.000000000000e+00
19 19  2 26 10  0  0.0-3.483053296804e-04 4.206412995700e-12 0.000000000000e+00
    5.800000000000e+01-5.437500000000e+01 3.986237471362e-09-2.336172926065e+00
   -2.847984433174e-06 9.410198545083e-03 6.359070539474e-06 5.153626914978e+03
    2.088000000000e+05 9.499490261078e-08-2.304387142357e+00 7.823109626770e-08
    9.816605640685e-01 2.596875000000e+02 1.349808031460e+00-7.808539542729e-09
    7.071723137082e-11 1.000000000000e+00 2.042000000000e+03 0.000000000000e+00
    2.400000000000e+00 0.000000000000e+00-1.536682248116e-08 5.800000000000e+01
    2.016000000000e+05 4.000000000000e+00
10 19  2 26 10  0  0.0 1.089521683753e-04-7.958078640513e-12 0.000000000000e+00
    5.100000000000e+01-1.512500000000e+01 4.714124933654e-09-3.027906390146e+00
   -7.823109626770e-07 4.367471672595e-03 7.769092917442e-06 5.153661201477e+03
    2.088000000000e+05-4.656612873077e-08-3.111541978499e-01-9.126961231232e-08
    9.627739639715e-01 2.327187500000e+02-2.742267774529e+00-8.005690612005e-09
    1.778645516296e-10 1.000000000000e+00 2.042000000000e+03 0.000000000000e+00
    2.400000000000e+00 0.000000000000e+00 1.862645149231e-09 5.100000000000e+01
    2.016000000000e+05 4.000000000000e+00
21 19  2 26 10  0  0.0-2.428991720080e-04 7.275957614183e-12 0.000000000000e+00
    8.300000000000e+01-4.993750000000e+01 4.604834666990e-09-2.746096864586e+00
   -2.555549144745e-06 2.477783209179e-02 8.150935173035e-06 5.153793313980e+03
    2.088000000000e+05 3.129243850708e-07-1.412370258548e+00 2.700835466385e-07
    9.470928163431e-01 2.050937500000e+02-1.472262032549e+00-7.764251983689e-09
    3.807301446530e-10 1.000000000000e+00 2.042000000000e+03 0.000000000000e+00
    2.400000000000e+00 0.000000000000e+00-1.024454832077e-08 8.300000000000e+01
    2.016000000000e+05 4.000000000000e+00
32 19  2 26 10  0  0.0-2.078120596707e-04 1.898570189951e-11 0.000000000000e+00
    5.800000000000e+01-6.312500000000e+00 4.763412700973e-09 1.923646413857e+00
   -3.054738044739e-07 2.626454341225e-03 8.556991815567e-06 5.153757648468e+03
    2.088000000000e+05-7.823109626770e-08 7.306052192000e-01 1.490116119385e-08
    9.569422736525e-01 2.145312500000e+02-2.606505301922e+00-8.118195298277e-09
   -2.839403986859e-10 1.000000000000e+00 2.042000000000e+03 0.000000000000e+00
    2.400000000000e+00 0.000000000000e+00 4.656612873077e-10 5.800000000000e+01
    2.016000000000e+05 4.000000000000e+00
28 19  2 26 10  0  0.0 7.653767243028e-04 7.958078640513e-13 0.000000000000e+00
    4.000000000000e+01 2.750000000000e+01 3.920877606005e-09 2.026090128455e+00
    1.266598701477e-06 1.924478763249e-02 4.436820745468e-06 5.153699411392e+03
    2.088000000000e+05 3.930181264877e-07 2.922282101465e+00-1.341104507446e-07
    9.833142539799e-01 3.012187500000e+02-1.471910646941e+00-7.700320749268e-09
   -9.643258823294e-12 1.000000000000e+00 2.042000000000e+03 0.000000000000e+00
    2.400000000000e+00 0.000000000000e+00-1.117587089539e-08 4.000000000000e+01
    2.016000000000e+05 4.000000000000e+00
30 19  2 26 10  0  0.0-5.916412919760e-05-6.480149750132e-12 0.000000000000e+00
    8.700000000000e+01 6.500000000000e+01 4.840915929294e-09-1.587523368686e+00
    3.248453140259e-06 3.682323265821e-03 8.044764399529e-06 5.153621391296e+03
    2.088000000000e+05-7.078051567078e-08 1.830602487736e+00-6.332993507385e-08
    9.413559816323e-01 2.153125000000e+02-3.020831686131e+00-8.140339077797e-09
   -9.000374901741e-11 1.000000000000e+00 2.042000000000e+03 0.000000000000e+00
    3.400000000000e+00 0.000000000000e+00 3.725290298462e-09 8.700000000000e+01
    2.016000000000e+05 4.000000000000e+00
17 19  2 26 10  0  0.0 1.540128141642e-05 5.684341886081e-12 0.000000000000e+00
    9.000000000000e+01-4.671875000000e+01 4.036596711884e-09 1.143485409409e+00
   -2.514570951462e-06 1.294849021360e-02 6.800517439842e-06 5.153700700760e+03
    2.088000000000e+05-2.812594175339e-07-2.350816572192e+00-1.024454832077e-07
    9.839291857428e-01 2.595937500000e+02-1.719982740505e+00-8.107123408517e-09
   -2.571535686212e-11 1.000000000000e+00 2.042000000000e+03 0.000000000000e+00
    3.400000000000e+00 0.000000000000e+00-1.117587089539e-08 9.000000000000e+01
    2.016000000000e+05 4.000000000000e+00
12 19  2 26 10  0  0.0 2.647456713021e-04-3.183231456205e-12 0.000000000000e+00
    5.500000000000e+01 3.650000000000e+01 4.039453973758e-09-2.318405604591e+00
    1.892447471619e-06 7.500427658670e-03 4.643574357033e-06 5.153692115784e+03
    2.088000000000e+05 2.235174179077e-08 2.899365978368e+00-9.499490261078e-08
    9.840061820472e-01 3.021250000000e+02 1.036532995920e+00-7.913543916583e-09
    6.500270762369e-11 1.000000000000e+00 2.042000000000e+03 0.000000000000e+00
    2.400000000000e+00 0.000000000000e+00-1.257285475731e-08 5.500000000000e+01
    2.016000000000e+05 4.000000000000e+00
29 19  2 26 10  0  0.0 2.618068829179e-04-8.753886504564e-12 0.000000000000e+00
    8.600000000000e+01-5.415625000000e+01 3.913734451321e-09 2.013579747507e+00
   -2.752989530563e-06 7.399126188830e-04 6.474554538727e-06 5.153561643600e+03
    2.088000000000e+05 4.284083843231e-08-2.339816038273e+00 1.303851604462e-08
    9.853428576108e-01 2.677812500000e+02 1.452277948383e+00-7.933901907432e-09
   -6.071681481333e-12 1.000000000000e+00 2.042000000000e+03 0.000000000000e+00
    2.400000000000e+00 0.000000000000e+00-1.024454832077e-08 8.600000000000e+01
    2.016000000000e+05 4.000000000000e+00
20 19  2 26 10  0  0.0 5.225827917457e-04 3.410605131648e-13 0.000000000000e+00
    5.600000000000e+01-1.706250000000e+01 5.487371428189e-09-1.298488261054e+00
   -8.866190910339e-07 4.397321841680e-03 7.584691047668e-06 5.153671642303e+03
    2.088000000000e+05-6.332993507385e-08-4.265516863099e-01-8.009374141693e-08
    9.303378195502e-01 2.195625000000e+02 2.292163000349e+00-8.524997957526e-09
    2.385813664430e-10 1.000000000000e+00 2.042000000000e+03 0.000000000000e+00
    2.400000000000e+00 0.000000000000e+00-8.381903171539e-09 5.600000000000e+01
    2.016000000000e+05 4.000000000000e+00
 5 19  2 26  9 59 44.0 1.139473170042e-06 0.000000000000e+00 0.000000000000e+00
    8.000000000000e+00-1.653125000000e+01 5.150214527108e-09 1.957040826674e+00
   -8.363276720047e-07 5.550585919991e-03 7.255002856255e-06 5.153630043030e+03
    2.087840000000e+05-1.471489667892e-07-3.334655520759e-01-2.235174179077e-08
    9.496007597118e-01 2.360937500000e+02 7.132506483581e-01-8.263558496095e-09
    1.746501320219e-10 1.000000000000e+00 2.042000000000e+03 0.000000000000e+00
    2.400000000000e+00 0.000000000000e+00-1.117587089539e-08 8.000000000000e+00
    2.022300000000e+05 4.000000000000e+00
17 19  2 26  9 59 44.0 1.540081575513e-05 5.684341886081e-12 0.000000000000e+00
    0.000000000000e+00-4.671875000000e+01 4.036239554150e-09 1.141151725916e+00
   -2.514570951462e-06 1.294849382248e-02 6.800517439842e-06 5.153700698853e+03
    2.087840000000e+05-2.812594175339e-07-2.350816440529e+00-1.024454832077e-07
    9.839291857428e-01 2.595937500000e+02-1.719982782930e+00-8.107123408517e-09
   -2.607251459631e-11 1.000000000000e+00 2.042000000000e+03 0.000000000000e+00
    2.400000000000e+00 0.000000000000e+00-1.117587089539e-08 0.000000000000e+00
    2.023500000000e+05 4.000000000000e+00
13 19  2 26  9 59 44.0-7.363548502326e-05 1.364242052659e-12 0.000000000000e+00
    2.000000000000e+00 4.218750000000e+00 4.506616290086e-09 9.573882456919e-02
    3.408640623093e-07 3.704375703819e-03 9.033828973770e-06 5.153663616180e+03
    2.087840000000e+05 3.539025783539e-08 8.601792615989e-01 9.313225746155e-09
    9.680791749434e-01 2.073750000000e+02 1.361053272075e+00-8.013905239892e-09
   -3.196561721055e-10 1.000000000000e+00 2.042000000000e+03 0.000000000000e+00
    2.400000000000e+00 0.000000000000e+00-1.117587089539e-08 2.000000000000e+00
    2.059500000000e+05 4.000000000000e+00
16 19  2 26  9 59 44.0-2.173706889153e-05-2.501110429876e-12 0.000000000000e+00
    8.000000000000e+00 3.918750000000e+01 4.024810506656e-09 2.051345420988e+00
    1.952052116394e-06 1.064459432382e-02 5.444511771202e-06 5.153783340454e+03
    2.087840000000e+05-2.067536115646e-07 2.918269358135e+00 1.490116119385e-08
    9.843820642185e-01 2.892812500000e+02 5.444515371062e-01-7.987832725295e-09
   -2.214377952016e-11 1.000000000000e+00 2.042000000000e+03 0.000000000000e+00
    2.400000000000e+00 0.000000000000e+00-1.071020960808e-08 8.000000000000e+00
    2.059500000000e+05 4.000000000000e+00
